COSMOS 2419 (714)       
1 28915U 05050A   16262.09987669  .00000028  00000-0  00000+0 0  9995
2 28915  65.3635  75.0277 0014771 359.6263 140.1551  2.13106465 83531
COSMOS 2425 (716)       
1 29670U 06062A   16262.08817763  .00000000  00000-0  10000-3 0  9999
2 29670  65.5903 314.0324 0020009 340.2337 206.4218  2.13105040 75735
COSMOS 2426 (717)       
1 29671U 06062B   16261.59401264  .00000004  00000-0  10000-3 0  9994
2 29671  65.6078 314.1327 0018640 170.8558 216.9268  2.13103038 75730
COSMOS 2424 (715)       
1 29672U 06062C   16262.37170919 -.00000002  00000-0  10000-3 0  9991
2 29672  65.5922 314.0329 0017992 169.9644 270.5575  2.13102439 75745
COSMOS 2433 (720)       
1 32275U 07052A   16261.74606985  .00000030  00000-0  10000-3 0  9991
2 32275  65.3782  74.8125 0000984 194.2103 282.0800  2.13104835 69248
COSMOS 2432 (719)       
1 32276U 07052B   16262.15482118  .00000028  00000-0  10000-3 0  9995
2 32276  65.3918  74.8656 0010252 347.4345  36.0572  2.13104184 69259
COSMOS 2434 (721)       
1 32393U 07065A   16261.74779080  .00000003  00000-0  00000-0 0  9999
2 32393  65.2083 313.3223 0003947 144.8552 224.1213  2.13102991 67955
COSMOS 2436 (723)       
1 32395U 07065C   16261.69361436  .00000003  00000-0  10000-3 0  9991
2 32395  65.2211 313.3690 0015339 347.9021  71.5343  2.13102991 67883
COSMOS 2443 (725)       
1 33379U 08046B   16261.68191646  .00000030  00000-0  10000-3 0  9997
2 33379  65.3093  74.2217 0017107 179.6537 151.3244  2.13101166 62100
COSMOS 2456 (730)       
1 36111U 09070A   16261.69578797  .00000022  00000-0  00000-0 0  9996
2 36111  64.1816 192.8968 0005515 303.7121 195.3388  2.13103074 52618
COSMOS 2457 (733)       
1 36112U 09070B   16261.63676874  .00000022  00000-0  00000+0 0  9995
2 36112  64.1638 192.8240 0006473 179.0280  44.5697  2.13101791 52610
COSMOS 2458 (734)       
1 36113U 09070C   16261.66575454  .00000022  00000-0  10000-3 0  9996
2 36113  64.1693 192.8300 0001734 313.9259 339.5327  2.13101950 52613
COSMOS 2459 (731)       
1 36400U 10007A   16261.77419646  .00000029  00000-0  10000-3 0  9996
2 36400  65.2895  73.9510 0027048 357.6589   4.7648  2.13102318 50970
COSMOS 2461 (735)       
1 36401U 10007B   16261.86643941  .00000028  00000-0  10000-3 0  9993
2 36401  65.2815  73.9278 0008442  80.3432 263.4439  2.13102376 50963
COSMOS 2460 (732)       
1 36402U 10007C   16262.09371235  .00000027  00000-0  10000-3 0  9993
2 36402  65.2721  73.8962 0002426 104.7208  95.1099  2.13101891 50971
COSMOS 2465 (737)       
1 37138U 10041B   16261.73973358  .00000002  00000-0  00000+0 0  9990
2 37138  64.8076 313.4491 0036945 174.1127 231.7829  2.13103480 47049
COSMOS 2464 (736)       
1 37139U 10041C   16261.50496815  .00000003  00000-0  00000+0 0  9995
2 37139  64.8146 313.4542 0020597   9.6759  40.7155  2.13102702 47040
COSMOS 2471 (701K)      
1 37372U 11009A   16262.15717134  .00000026  00000-0  00000+0 0  9996
2 37372  65.2681  73.8423 0006814 222.7049 158.7078  2.13102840 43255
COSMOS 2474 (742)       
1 37829U 11055A   16262.12771810  .00000025  00000-0  00000+0 0  9991
2 37829  64.5055 193.3339 0009523 252.7360  78.6777  2.13102002 38612
COSMOS 2476 (744)       
1 37867U 11064A   16262.07226909  .00000025  00000-0  00000+0 0  9991
2 37867  64.4860 193.4142 0018561 247.2306  87.5134  2.13102081 37961
COSMOS 2477 (745)       
1 37868U 11064B   16262.44113331  .00000026  00000-0  00000+0 0  9998
2 37868  64.4946 193.4432 0016522 248.5790 188.4099  2.13102005 37939
COSMOS 2475 (743)       
1 37869U 11064C   16262.20858587  .00000025  00000-0  00000+0 0  9991
2 37869  64.5022 193.4406 0021719 273.6233 301.1675  2.13102295 37937
COSMOS 2485 (747)       
1 39155U 13019A   16261.69281282  .00000023  00000-0  00000+0 0  9995
2 39155  64.6549 193.3969 0018758 242.2874 206.4595  2.13102184 26435
COSMOS 2492 (754)       
1 39620U 14012A   16261.14489495  .00000033  00000-0  10000-3 0  9998
2 39620  65.1591  73.9040 0013362 339.6953  82.1939  2.13103579 19378
COSMOS 2500 (755)       
1 40001U 14032A   16261.77874580  .00000028  00000-0  00000+0 0  9996
2 40001  65.1023  73.8989 0006007 183.1511 228.6008  2.13102917 17607
COSMOS 2501 (702K)      
1 40315U 14075A   16261.64229584 -.00000000  00000-0  00000-0 0  9997
2 40315  64.5791 314.8792 0019133 232.7791 235.1204  2.13101743 14003
COSMOS 2514 (751)       
1 41330U 16008A   16262.42718841  .00000024  00000-0  00000+0 0  9993
2 41330  64.9023  74.0894 0008573 200.6072 167.8848  2.13103545  4784
COSMOS 2516 (753)       
1 41554U 16032A   16262.13110941 -.00000003  00000-0  00000+0 0  9991
2 41554  64.7600 314.5589 0013653 222.5494 173.0354  2.13101629  2386
